SKYSAT-B                
1 40072U 14037D   25165.79282160  .00001177  00000+0  13970-3 0  9990
2 40072  98.3425 100.3572 0006695  39.7459 320.4245 14.86542215591437
WORLDVIEW-3 (WV-3)      
1 40115U 14048A   25165.54303714  .00000968  00000+0  11988-3 0  9996
2 40115  97.8779 239.9779 0006520  78.1559 282.0386 14.84978926587348
GAOFEN-2                
1 40118U 14049A   25165.87009154  .00000931  00000+0  12850-3 0  9996
2 40118  98.0595 224.4906 0004126 350.7596   9.3540 14.80525650584898
YAOGAN-21               
1 40143U 14053A   25165.88857747  .00007435  00000+0  31127-3 0  9993
2 40143  97.1982 216.7054 0011172   0.8585 359.2670 15.23773880599046
YAOGAN-22               
1 40275U 14063A   25165.40026883 -.00000031  00000+0  41806-4 0  9999
2 40275 100.7174 306.4907 0005774 300.5442  59.5099 13.15511792511458
ASNARO                  
1 40298U 14070A   25165.84870890  .00009274  00000+0  43590-3 0  9993
2 40298  97.3788 246.0189 0003948  46.7690 313.3874 15.19800846588241
YAOGAN-24               
1 40310U 14072A   25165.76306453  .00000728  00000+0  11267-3 0  9991
2 40310  98.1001 296.1569 0014266  11.7843 348.3697 14.76210877569531
CBERS 4                 
1 40336U 14079A   25165.84978299  .00000114  00000+0  54440-4 0  9998
2 40336  98.3532 229.7743 0001175  56.4970 303.6328 14.35510723551273
YAOGAN-26               
1 40362U 14088A   25165.76329210  .00011837  00000+0  37526-3 0  9990
2 40362  97.0633 173.8290 0003830 314.6500  45.4430 15.32842368582623
SMAP                    
1 40376U 15003A   25165.76274710  .00000444  00000+0  94839-4 0  9990
2 40376  98.1271 173.0367 0001797  86.7521 273.3886 14.63414598553881
KOMPSAT-3A              
1 40536U 15014A   25165.77067411  .00012536  00000+0  34809-3 0  9994
2 40536  97.6568 131.5526 0005974  82.2508 277.9414 15.37026006565127
SENTINEL-2A             
1 40697U 15028A   25165.73215409  .00000134  00000+0  67733-4 0  9999
2 40697  98.5694 240.8500 0001318  96.0669 264.0664 14.30823624521185
GAOFEN-8                
1 40701U 15030A   25165.86365230  .00013559  00000+0  43556-3 0  9991
2 40701  97.6893 336.2357 0013418  67.3326 292.9332 15.32327909554969
CARBONITE 1 (CBNT-1)    
1 40718U 15032D   25165.79133372  .00001816  00000+0  23577-3 0  9997
2 40718  97.6438 354.9228 0016252  62.5475 297.7389 14.81799294534907
