[
  {
    "OBJECT_NAME": "SKYSAT-B",
    "OBJECT_ID": "2014-037D",
    "EPOCH": "2025-06-14T19:01:39.786240",
    "MEAN_MOTION": 14.86542215,
    "ECCENTRICITY": 0.0006695,
    "INCLINATION": 98.3425,
    "RA_OF_ASC_NODE": 100.3572,
    "ARG_OF_PERICENTER": 39.7459,
    "MEAN_ANOMALY": 320.4245,
    "EPHEMERIS_TYPE": 0,
    "CLASSIFICATION_TYPE": "U",
    "NORAD_CAT_ID": 40072,
    "ELEMENT_SET_NO": 999,
    "REV_AT_EPOCH": 59143,
    "BSTAR": 0.0001397,
    "MEAN_MOTION_DOT": 1.177e-05,
    "MEAN_MOTION_DDOT": 0
  },
  {
    "OBJECT_NAME": "WORLDVIEW-3 (WV-3)",
    "OBJECT_ID": "2014-048A",
    "EPOCH": "2025-06-14T13:01:58.408896",
    "MEAN_MOTION": 14.84978926,
    "ECCENTRICITY": 0.000652,
    "INCLINATION": 97.8779,
    "RA_OF_ASC_NODE": 239.9779,
    "ARG_OF_PERICENTER": 78.1559,
    "MEAN_ANOMALY": 282.0386,
    "EPHEMERIS_TYPE": 0,
    "CLASSIFICATION_TYPE": "U",
    "NORAD_CAT_ID": 40115,
    "ELEMENT_SET_NO": 999,
    "REV_AT_EPOCH": 58734,
    "BSTAR": 0.00011988,
    "MEAN_MOTION_DOT": 9.68e-06,
    "MEAN_MOTION_DDOT": 0
  },
  {
    "OBJECT_NAME": "GAOFEN-2",
    "OBJECT_ID": "2014-049A",
    "EPOCH": "2025-06-14T20:52:55.909056",
    "MEAN_MOTION": 14.8052565,
    "ECCENTRICITY": 0.0004126,
    "INCLINATION": 98.0595,
    "RA_OF_ASC_NODE": 224.4906,
    "ARG_OF_PERICENTER": 350.7596,
    "MEAN_ANOMALY": 9.354,
    "EPHEMERIS_TYPE": 0,
    "CLASSIFICATION_TYPE": "U",
    "NORAD_CAT_ID": 40118,
    "ELEMENT_SET_NO": 999,
    "REV_AT_EPOCH": 58489,
    "BSTAR": 0.0001285,
    "MEAN_MOTION_DOT": 9.31e-06,
    "MEAN_MOTION_DDOT": 0
  },
  {
    "OBJECT_NAME": "YAOGAN-21",
    "OBJECT_ID": "2014-053A",
    "EPOCH": "2025-06-14T21:19:33.093408",
    "MEAN_MOTION": 15.2377388,
    "ECCENTRICITY": 0.0011172,
    "INCLINATION": 97.1982,
    "RA_OF_ASC_NODE": 216.7054,
    "ARG_OF_PERICENTER": 0.8585,
    "MEAN_ANOMALY": 359.267,
    "EPHEMERIS_TYPE": 0,
    "CLASSIFICATION_TYPE": "U",
    "NORAD_CAT_ID": 40143,
    "ELEMENT_SET_NO": 999,
    "REV_AT_EPOCH": 59904,
    "BSTAR": 0.00031127,
    "MEAN_MOTION_DOT": 7.435e-05,
    "MEAN_MOTION_DDOT": 0
  },
  {
    "OBJECT_NAME": "YAOGAN-22",
    "OBJECT_ID": "2014-063A",
    "EPOCH": "2025-06-14T09:36:23.226912",
    "MEAN_MOTION": 13.15511792,
    "ECCENTRICITY": 0.0005774,
    "INCLINATION": 100.7174,
    "RA_OF_ASC_NODE": 306.4907,
    "ARG_OF_PERICENTER": 300.5442,
    "MEAN_ANOMALY": 59.5099,
    "EPHEMERIS_TYPE": 0,
    "CLASSIFICATION_TYPE": "U",
    "NORAD_CAT_ID": 40275,
    "ELEMENT_SET_NO": 999,
    "REV_AT_EPOCH": 51145,
    "BSTAR": 4.1806e-05,
    "MEAN_MOTION_DOT": -3.1e-07,
    "MEAN_MOTION_DDOT": 0
  },
  {
    "OBJECT_NAME": "ASNARO",
    "OBJECT_ID": "2014-070A",
    "EPOCH": "2025-06-14T20:22:08.448960",
    "MEAN_MOTION": 15.19800846,
    "ECCENTRICITY": 0.0003948,
    "INCLINATION": 97.3788,
    "RA_OF_ASC_NODE": 246.0189,
    "ARG_OF_PERICENTER": 46.769,
    "MEAN_ANOMALY": 313.3874,
    "EPHEMERIS_TYPE": 0,
    "CLASSIFICATION_TYPE": "U",
    "NORAD_CAT_ID": 40298,
    "ELEMENT_SET_NO": 999,
    "REV_AT_EPOCH": 58824,
    "BSTAR": 0.0004359,
    "MEAN_MOTION_DOT": 9.274e-05,
    "MEAN_MOTION_DDOT": 0
  },
  {
    "OBJECT_NAME": "YAOGAN-24",
    "OBJECT_ID": "2014-072A",
    "EPOCH": "2025-06-14T18:18:48.775392",
    "MEAN_MOTION": 14.76210877,
    "ECCENTRICITY": 0.0014266,
    "INCLINATION": 98.1001,
    "RA_OF_ASC_NODE": 296.1569,
    "ARG_OF_PERICENTER": 11.7843,
    "MEAN_ANOMALY": 348.3697,
    "EPHEMERIS_TYPE": 0,
    "CLASSIFICATION_TYPE": "U",
    "NORAD_CAT_ID": 40310,
    "ELEMENT_SET_NO": 999,
    "REV_AT_EPOCH": 56953,
    "BSTAR": 0.00011267,
    "MEAN_MOTION_DOT": 7.28e-06,
    "MEAN_MOTION_DDOT": 0
  },
  {
    "OBJECT_NAME": "CBERS 4",
    "OBJECT_ID": "2014-079A",
    "EPOCH": "2025-06-14T20:23:41.250336",
    "MEAN_MOTION": 14.35510723,
    "ECCENTRICITY": 0.0001175,
    "INCLINATION": 98.3532,
    "RA_OF_ASC_NODE": 229.7743,
    "ARG_OF_PERICENTER": 56.497,
    "MEAN_ANOMALY": 303.6328,
    "EPHEMERIS_TYPE": 0,
    "CLASSIFICATION_TYPE": "U",
    "NORAD_CAT_ID": 40336,
    "ELEMENT_SET_NO": 999,
    "REV_AT_EPOCH": 55127,
    "BSTAR": 5.444e-05,
    "MEAN_MOTION_DOT": 1.14e-06,
    "MEAN_MOTION_DDOT": 0
  },
  {
    "OBJECT_NAME": "YAOGAN-26",
    "OBJECT_ID": "2014-088A",
    "EPOCH": "2025-06-14T18:19:08.437440",
    "MEAN_MOTION": 15.32842368,
    "ECCENTRICITY": 0.000383,
    "INCLINATION": 97.0633,
    "RA_OF_ASC_NODE": 173.829,
    "ARG_OF_PERICENTER": 314.65,
    "MEAN_ANOMALY": 45.443,
    "EPHEMERIS_TYPE": 0,
    "CLASSIFICATION_TYPE": "U",
    "NORAD_CAT_ID": 40362,
    "ELEMENT_SET_NO": 999,
    "REV_AT_EPOCH": 58262,
    "BSTAR": 0.00037526,
    "MEAN_MOTION_DOT": 0.00011837,
    "MEAN_MOTION_DDOT": 0
  },
  {
    "OBJECT_NAME": "SMAP",
    "OBJECT_ID": "2015-003A",
    "EPOCH": "2025-06-14T18:18:21.349440",
    "MEAN_MOTION": 14.63414598,
    "ECCENTRICITY": 0.0001797,
    "INCLINATION": 98.1271,
    "RA_OF_ASC_NODE": 173.0367,
    "ARG_OF_PERICENTER": 86.7521,
    "MEAN_ANOMALY": 273.3886,
    "EPHEMERIS_TYPE": 0,
    "CLASSIFICATION_TYPE": "U",
    "NORAD_CAT_ID": 40376,
    "ELEMENT_SET_NO": 999,
    "REV_AT_EPOCH": 55388,
    "BSTAR": 9.4839e-05,
    "MEAN_MOTION_DOT": 4.44e-06,
    "MEAN_MOTION_DDOT": 0
  },
  {
    "OBJECT_NAME": "KOMPSAT-3A",
    "OBJECT_ID": "2015-014A",
    "EPOCH": "2025-06-14T18:29:46.243104",
    "MEAN_MOTION": 15.37026006,
    "ECCENTRICITY": 0.0005974,
    "INCLINATION": 97.6568,
    "RA_OF_ASC_NODE": 131.5526,
    "ARG_OF_PERICENTER": 82.2508,
    "MEAN_ANOMALY": 277.9414,
    "EPHEMERIS_TYPE": 0,
    "CLASSIFICATION_TYPE": "U",
    "NORAD_CAT_ID": 40536,
    "ELEMENT_SET_NO": 999,
    "REV_AT_EPOCH": 56512,
    "BSTAR": 0.00034809,
    "MEAN_MOTION_DOT": 0.00012536,
    "MEAN_MOTION_DDOT": 0
  },
  {
    "OBJECT_NAME": "SENTINEL-2A",
    "OBJECT_ID": "2015-028A",
    "EPOCH": "2025-06-14T17:34:18.113376",
    "MEAN_MOTION": 14.30823624,
    "ECCENTRICITY": 0.0001318,
    "INCLINATION": 98.5694,
    "RA_OF_ASC_NODE": 240.85,
    "ARG_OF_PERICENTER": 96.0669,
    "MEAN_ANOMALY": 264.0664,
    "EPHEMERIS_TYPE": 0,
    "CLASSIFICATION_TYPE": "U",
    "NORAD_CAT_ID": 40697,
    "ELEMENT_SET_NO": 999,
    "REV_AT_EPOCH": 52118,
    "BSTAR": 6.7733e-05,
    "MEAN_MOTION_DOT": 1.34e-06,
    "MEAN_MOTION_DDOT": 0
  },
  {
    "OBJECT_NAME": "GAOFEN-8",
    "OBJECT_ID": "2015-030A",
    "EPOCH": "2025-06-14T20:43:39.558720",
    "MEAN_MOTION": 15.32327909,
    "ECCENTRICITY": 0.0013418,
    "INCLINATION": 97.6893,
    "RA_OF_ASC_NODE": 336.2357,
    "ARG_OF_PERICENTER": 67.3326,
    "MEAN_ANOMALY": 292.9332,
    "EPHEMERIS_TYPE": 0,
    "CLASSIFICATION_TYPE": "U",
    "NORAD_CAT_ID": 40701,
    "ELEMENT_SET_NO": 999,
    "REV_AT_EPOCH": 55496,
    "BSTAR": 0.00043556,
    "MEAN_MOTION_DOT": 0.00013559,
    "MEAN_MOTION_DDOT": 0
  },
  {
    "OBJECT_NAME": "CARBONITE 1 (CBNT-1)",
    "OBJECT_ID": "2015-032D",
    "EPOCH": "2025-06-14T18:59:31.233408",
    "MEAN_MOTION": 14.81799294,
    "ECCENTRICITY": 0.0016252,
    "INCLINATION": 97.6438,
    "RA_OF_ASC_NODE": 354.9228,
    "ARG_OF_PERICENTER": 62.5475,
    "MEAN_ANOMALY": 297.7389,
    "EPHEMERIS_TYPE": 0,
    "CLASSIFICATION_TYPE": "U",
    "NORAD_CAT_ID": 40718,
    "ELEMENT_SET_NO": 999,
    "REV_AT_EPOCH": 53490,
    "BSTAR": 0.00023577,
    "MEAN_MOTION_DOT": 1.816e-05,
    "MEAN_MOTION_DDOT": 0
  }
]